[{"OBJECT_NAME":"ONEWEB-0662","OBJECT_ID":"2023-029AC","EPOCH":"2025-08-27T00:01:43.314528","MEAN_MOTION":13.14502421,"ECCENTRICITY":0.00017638,"INCLINATION":87.9097,"RA_OF_ASC_NODE":348.3196,"ARG_OF_PERICENTER":87.8744,"MEAN_ANOMALY":272.2588,"EPHEMERIS_TYPE":0,"CLASSIFICATION_TYPE":"U","NORAD_CAT_ID":55822,"ELEMENT_SET_NO":999,"REV_AT_EPOCH":12078,"BSTAR":0.0004187303,"MEAN_MOTION_DOT":1.68e-6,"MEAN_MOTION_DDOT":0},{"OBJECT_NAME":"ONEWEB-0663","OBJECT_ID":"2023-029AD","EPOCH":"2025-08-27T05:52:53.946048","MEAN_MOTION":13.20844126,"ECCENTRICITY":0.00017461,"INCLINATION":87.9313,"RA_OF_ASC_NODE":333.0646,"ARG_OF_PERICENTER":85.6954,"MEAN_ANOMALY":274.4379,"EPHEMERIS_TYPE":0,"CLASSIFICATION_TYPE":"U","NORAD_CAT_ID":55823,"ELEMENT_SET_NO":999,"REV_AT_EPOCH":12234,"BSTAR":9.1806269e-5,"MEAN_MOTION_DOT":5.0e-7,"MEAN_MOTION_DDOT":0},{"OBJECT_NAME":"ONEWEB-0664","OBJECT_ID":"2023-029AE","EPOCH":"2025-08-27T00:40:04.609632","MEAN_MOTION":13.20771179,"ECCENTRICITY":0.00022669,"INCLINATION":87.9304,"RA_OF_ASC_NODE":333.1288,"ARG_OF_PERICENTER":94.1815,"MEAN_ANOMALY":265.9578,"EPHEMERIS_TYPE":0,"CLASSIFICATION_TYPE":"U","NORAD_CAT_ID":55824,"ELEMENT_SET_NO":999,"REV_AT_EPOCH":12231,"BSTAR":-0.00055059666,"MEAN_MOTION_DOT":-2.11e-6,"MEAN_MOTION_DDOT":0},{"OBJECT_NAME":"ONEWEB-0665","OBJECT_ID":"2023-029AF","EPOCH":"2025-08-27T00:56:31.115328","MEAN_MOTION":13.14502145,"ECCENTRICITY":0.0001762,"INCLINATION":87.9097,"RA_OF_ASC_NODE":348.2804,"ARG_OF_PERICENTER":91.6131,"MEAN_ANOMALY":268.5201,"EPHEMERIS_TYPE":0,"CLASSIFICATION_TYPE":"U","NORAD_CAT_ID":55825,"ELEMENT_SET_NO":999,"REV_AT_EPOCH":12076,"BSTAR":-0.00028394057,"MEAN_MOTION_DOT":-9.2e-7,"MEAN_MOTION_DDOT":0},{"OBJECT_NAME":"ONEWEB-0666","OBJECT_ID":"2023-029AG","EPOCH":"2025-08-27T00:30:59.544864","MEAN_MOTION":13.20770052,"ECCENTRICITY":0.00020713,"INCLINATION":87.9302,"RA_OF_ASC_NODE":333.1183,"ARG_OF_PERICENTER":120.9978,"MEAN_ANOMALY":239.1359,"EPHEMERIS_TYPE":0,"CLASSIFICATION_TYPE":"U","NORAD_CAT_ID":55826,"ELEMENT_SET_NO":999,"REV_AT_EPOCH":12232,"BSTAR":-5.4312386e-5,"MEAN_MOTION_DOT":-9.0e-8,"MEAN_MOTION_DDOT":0},{"OBJECT_NAME":"ONEWEB-0667","OBJECT_ID":"2023-029AH","EPOCH":"2025-08-27T05:49:09.770016","MEAN_MOTION":13.20774169,"ECCENTRICITY":0.00019011,"INCLINATION":87.9299,"RA_OF_ASC_NODE":333.0024,"ARG_OF_PERICENTER":92.5245,"MEAN_ANOMALY":267.6106,"EPHEMERIS_TYPE":0,"CLASSIFICATION_TYPE":"U","NORAD_CAT_ID":55827,"ELEMENT_SET_NO":999,"REV_AT_EPOCH":12234,"BSTAR":0.00012532334,"MEAN_MOTION_DOT":6.4e-7,"MEAN_MOTION_DDOT":0},{"OBJECT_NAME":"ONEWEB-0669","OBJECT_ID":"2023-029AJ","EPOCH":"2025-08-27T05:42:21.912768","MEAN_MOTION":13.20772726,"ECCENTRICITY":0.00026021,"INCLINATION":87.9303,"RA_OF_ASC_NODE":333.0421,"ARG_OF_PERICENTER":103.8222,"MEAN_ANOMALY":256.3201,"EPHEMERIS_TYPE":0,"CLASSIFICATION_TYPE":"U","NORAD_CAT_ID":55828,"ELEMENT_SET_NO":999,"REV_AT_EPOCH":12234,"BSTAR":0.0001230293,"MEAN_MOTION_DOT":6.3e-7,"MEAN_MOTION_DDOT":0},{"OBJECT_NAME":"ONEWEB-0670","OBJECT_ID":"2023-029AK","EPOCH":"2025-08-27T05:53:22.915104","MEAN_MOTION":13.14502214,"ECCENTRICITY":0.00020841,"INCLINATION":87.91,"RA_OF_ASC_NODE":348.2597,"ARG_OF_PERICENTER":90.0383,"MEAN_ANOMALY":270.0986,"EPHEMERIS_TYPE":0,"CLASSIFICATION_TYPE":"U","NORAD_CAT_ID":55829,"ELEMENT_SET_NO":999,"REV_AT_EPOCH":12081,"BSTAR":-8.2675109e-5,"MEAN_MOTION_DOT":-1.8e-7,"MEAN_MOTION_DDOT":0},{"OBJECT_NAME":"ONEWEB-0671","OBJECT_ID":"2023-029AL","EPOCH":"2025-08-27T01:06:12.818880","MEAN_MOTION":13.19726505,"ECCENTRICITY":0.00018705,"INCLINATION":87.927,"RA_OF_ASC_NODE":3.4625,"ARG_OF_PERICENTER":92.4161,"MEAN_ANOMALY":267.7186,"EPHEMERIS_TYPE":0,"CLASSIFICATION_TYPE":"U","NORAD_CAT_ID":55830,"ELEMENT_SET_NO":999,"REV_AT_EPOCH":12010,"BSTAR":9.6748348e-5,"MEAN_MOTION_DOT":5.2e-7,"MEAN_MOTION_DDOT":0},{"OBJECT_NAME":"ONEWEB-0672","OBJECT_ID":"2023-029AM","EPOCH":"2025-08-27T05:35:33.054144","MEAN_MOTION":13.20771802,"ECCENTRICITY":0.0002084,"INCLINATION":87.9296,"RA_OF_ASC_NODE":333.0275,"ARG_OF_PERICENTER":107.3758,"MEAN_ANOMALY":252.7604,"EPHEMERIS_TYPE":0,"CLASSIFICATION_TYPE":"U","NORAD_CAT_ID":55831,"ELEMENT_SET_NO":999,"REV_AT_EPOCH":12234,"BSTAR":0.00025539465,"MEAN_MOTION_DOT":1.17e-6,"MEAN_MOTION_DDOT":0},{"OBJECT_NAME":"ONEWEB-0673","OBJECT_ID":"2023-029AN","EPOCH":"2025-08-27T02:21:14.918976","MEAN_MOTION":13.19726888,"ECCENTRICITY":0.00016121,"INCLINATION":87.928,"RA_OF_ASC_NODE":3.4171,"ARG_OF_PERICENTER":95.1683,"MEAN_ANOMALY":264.9634,"EPHEMERIS_TYPE":0,"CLASSIFICATION_TYPE":"U","NORAD_CAT_ID":55832,"ELEMENT_SET_NO":999,"REV_AT_EPOCH":12011,"BSTAR":-6.0345575e-5,"MEAN_MOTION_DOT":-1.1e-7,"MEAN_MOTION_DDOT":0},{"OBJECT_NAME":"ONEWEB-0674","OBJECT_ID":"2023-029AP","EPOCH":"2025-08-27T01:28:30.664992","MEAN_MOTION":13.14503597,"ECCENTRICITY":0.00022198,"INCLINATION":87.9098,"RA_OF_ASC_NODE":348.2795,"ARG_OF_PERICENTER":89.6975,"MEAN_ANOMALY":270.4409,"EPHEMERIS_TYPE":0,"CLASSIFICATION_TYPE":"U","NORAD_CAT_ID":55833,"ELEMENT_SET_NO":999,"REV_AT_EPOCH":12077,"BSTAR":0.00060174426,"MEAN_MOTION_DOT":2.36e-6,"MEAN_MOTION_DDOT":0},{"OBJECT_NAME":"ONEWEB-0675","OBJECT_ID":"2023-029AQ","EPOCH":"2025-08-27T00:54:49.417344","MEAN_MOTION":13.19727228,"ECCENTRICITY":0.0001638,"INCLINATION":87.9269,"RA_OF_ASC_NODE":3.4747,"ARG_OF_PERICENTER":108.0516,"MEAN_ANOMALY":252.0795,"EPHEMERIS_TYPE":0,"CLASSIFICATION_TYPE":"U","NORAD_CAT_ID":55834,"ELEMENT_SET_NO":999,"REV_AT_EPOCH":12012,"BSTAR":9.2444561e-5,"MEAN_MOTION_DOT":5.0e-7,"MEAN_MOTION_DDOT":0},{"OBJECT_NAME":"ONEWEB-0720","OBJECT_ID":"2023-029AR","EPOCH":"2025-08-27T02:32:38.955552","MEAN_MOTION":13.19725504,"ECCENTRICITY":0.000161,"INCLINATION":87.9267,"RA_OF_ASC_NODE":3.4581,"ARG_OF_PERICENTER":85.421,"MEAN_ANOMALY":274.7106,"EPHEMERIS_TYPE":0,"CLASSIFICATION_TYPE":"U","NORAD_CAT_ID":55835,"ELEMENT_SET_NO":999,"REV_AT_EPOCH":12005,"BSTAR":-1.2086355e-5,"MEAN_MOTION_DOT":8.0e-8,"MEAN_MOTION_DDOT":0},{"OBJECT_NAME":"ONEWEB-0537","OBJECT_ID":"2023-043A","EPOCH":"2025-08-27T02:04:22.299744","MEAN_MOTION":13.16595651,"ECCENTRICITY":0.0001954,"INCLINATION":87.9012,"RA_OF_ASC_NODE":287.3848,"ARG_OF_PERICENTER":101.6277,"MEAN_ANOMALY":258.5073,"EPHEMERIS_TYPE":0,"CLASSIFICATION_TYPE":"U","NORAD_CAT_ID":56046,"ELEMENT_SET_NO":999,"REV_AT_EPOCH":12026,"BSTAR":1.5284017e-5,"MEAN_MOTION_DOT":1.9e-7,"MEAN_MOTION_DDOT":0},{"OBJECT_NAME":"ONEWEB-0538","OBJECT_ID":"2023-043B","EPOCH":"2025-08-26T20:26:56.256864","MEAN_MOTION":13.16593705,"ECCENTRICITY":0.00017187,"INCLINATION":87.9008,"RA_OF_ASC_NODE":287.4452,"ARG_OF_PERICENTER":98.3063,"MEAN_ANOMALY":261.8263,"EPHEMERIS_TYPE":0,"CLASSIFICATION_TYPE":"U","NORAD_CAT_ID":56047,"ELEMENT_SET_NO":999,"REV_AT_EPOCH":12024,"BSTAR":-0.00011568164,"MEAN_MOTION_DOT":-3.1e-7,"MEAN_MOTION_DDOT":0}]
