ONEWEB-0662             
1 55822U 23029AC  25239.00119577  .00000168  00000+0  41873-3 0  9999
2 55822  87.9097 348.3196 0001763  87.8744 272.2588 13.14502421120788
ONEWEB-0663             
1 55823U 23029AD  25239.24506882  .00000050  00000+0  91806-4 0  9997
2 55823  87.9313 333.0646 0001746  85.6954 274.4379 13.20844126122345
ONEWEB-0664             
1 55824U 23029AE  25239.02783113 -.00000211  00000+0 -55060-3 0  9990
2 55824  87.9304 333.1288 0002266  94.1815 265.9578 13.20771179122318
ONEWEB-0665             
1 55825U 23029AF  25239.03924902 -.00000092  00000+0 -28394-3 0  9992
2 55825  87.9097 348.2804 0001762  91.6131 268.5201 13.14502145120769
ONEWEB-0666             
1 55826U 23029AG  25239.02152251 -.00000009  00000+0 -54312-4 0  9990
2 55826  87.9302 333.1183 0002071 120.9978 239.1359 13.20770052122324
ONEWEB-0667             
1 55827U 23029AH  25239.24247419  .00000064  00000+0  12532-3 0  9992
2 55827  87.9299 333.0024 0001901  92.5245 267.6106 13.20774169122346
ONEWEB-0669             
1 55828U 23029AJ  25239.23775362  .00000063  00000+0  12303-3 0  9990
2 55828  87.9303 333.0421 0002602 103.8222 256.3201 13.20772726122342
ONEWEB-0670             
1 55829U 23029AK  25239.24540411 -.00000018  00000+0 -82675-4 0  9999
2 55829  87.9100 348.2597 0002084  90.0383 270.0986 13.14502214120818
ONEWEB-0671             
1 55830U 23029AL  25239.04598170  .00000052  00000+0  96748-4 0  9996
2 55830  87.9270   3.4625 0001870  92.4161 267.7186 13.19726505120105
ONEWEB-0672             
1 55831U 23029AM  25239.23302146  .00000117  00000+0  25539-3 0  9995
2 55831  87.9296 333.0275 0002084 107.3758 252.7604 13.20771802122342
ONEWEB-0673             
1 55832U 23029AN  25239.09808934 -.00000011  00000+0 -60346-4 0  9997
2 55832  87.9280   3.4171 0001612  95.1683 264.9634 13.19726888120119
ONEWEB-0674             
1 55833U 23029AP  25239.06146603  .00000236  00000+0  60174-3 0  9998
2 55833  87.9098 348.2795 0002219  89.6975 270.4409 13.14503597120774
ONEWEB-0675             
1 55834U 23029AQ  25239.03807196  .00000050  00000+0  92445-4 0  9998
2 55834  87.9269   3.4747 0001638 108.0516 252.0795 13.19727228120120
ONEWEB-0720             
1 55835U 23029AR  25239.10600643  .00000008  00000+0 -12086-4 0  9992
2 55835  87.9267   3.4581 0001610  85.4210 274.7106 13.19725504120058
ONEWEB-0537             
1 56046U 23043A   25239.08636921  .00000019  00000+0  15284-4 0  9992
2 56046  87.9012 287.3848 0001954 101.6277 258.5073 13.16595651120266
ONEWEB-0538             
1 56047U 23043B   25238.85204001 -.00000031  00000+0 -11568-3 0  9993
2 56047  87.9008 287.4452 0001718  98.3063 261.8263 13.16593705120241
